{"type":"FeatureCollection","features":[{"type":"Feature","properties":{"name":"Odisha"},"geometry":{"type":"Polygon","coordinates":[[[81.39150221074128,17.828239806763836],[81.393506106409,17.814285493492893],[81.41779276911852,17.81256893602822],[81.42795189081208,17.828314305125637],[81.47538975335529,17.832696069080612],[81.49440907522578,17.810452019812807],[81.57731624744821,17.835791972706296],[81.6197279281604,17.82335413108876],[81.67162226037507,17.88487461403544],[81.69684591977052,17.892765430965206],[81.71175272025573,17.869170251689795],[81.80958819910752,17.944102024571073],[81.96031194715918,18.00021954369727],[82.0331627788944,18.065971631545438],[82.05939015505496,18.05261663510702],[82.08071630322563,18.07378099199761],[82.12178020403411,18.066035092002046],[82.1409060075518,18.043897926774463],[82.17227539742062,18.049933863808423],[82.18596729920115,18.018960737674547],[82.25028333134364,17.988297723283235],[82.27582656410058,17.994997947968386],[82.26670409281591,18.04331969896935],[82.30641866434348,18.070403906246113],[82.31408111466419,18.04631646774043],[82.33035327724684,18.058684029302125],[82.33830273457558,18.048938649187104],[82.35212737820301,18.08348397810698],[82.34184918047528,18.15071563560492],[82.3660535575888,18.1335057168692],[82.37277553129505,18.14325223672021],[82.35718578130486,18.170144314735275],[82.31874450387348,18.182839830150648],[82.31453406219835,18.203845633723652],[82.34124747595213,18.22397443729029],[82.32973094127617,18.2306128984877],[82.34528196256365,18.27432466016925],[82.380280925771,18.282217576239695],[82.40138430603183,18.314514924060774],[82.39272824364963,18.326744175760243],[82.35712605043871,18.314178578023],[82.3428010086582,18.325108091266834],[82.39275863549408,18.377056507627188],[82.3695950428836,18.417738798701453],[82.4822387927619,18.54455020646907],[82.50739653665994,18.509579117327576],[82.5313758455764,18.511777965700617],[82.52440140722831,18.463818546272478],[82.53843567933296,18.44230342933963],[82.56204604835426,18.445666015440565],[82.54347394025041,18.3976540013698],[82.60882036488414,18.37692868392196],[82.6196103402956,18.354734181505762],[82.60484241803448,18.349136624119637],[82.61048995748536,18.32558061562986],[82.58479406981098,18.31512054458142],[82.59929752342526,18.300307474203294],[82.58911679548123,18.27849509896589],[82.63527810120593,18.237277954525666],[82.653687780459,18.248980218026986],[82.6671852635672,18.29506440211054],[82.77537660203353,18.33958102277728],[82.8015694084109,18.403375974991263],[82.78447859191425,18.42802138134715],[82.80742037280476,18.447719364881266],[82.8531740676932,18.41820290292361],[82.89286703200008,18.42123284225346],[82.89317691166013,18.387166955516193],[82.91103554155109,18.364522175378625],[82.98470636063519,18.36361902698485],[83.02542125882286,18.39319553777341],[83.0616296164867,18.384050185387082],[83.0747156837366,18.400997326105937],[83.06802801973055,18.437275975473938],[83.04565544328733,18.427594766233085],[83.04551462843654,18.443446449271278],[83.02361844666075,18.45299313308027],[83.09746277912643,18.546379047764333],[83.04061564714056,18.556268278339246],[83.0349871574536,18.576289584161884],[83.06206936412002,18.594794931184254],[83.04920756823338,18.605015348518236],[83.05776440171832,18.622148436126622],[83.08386873983898,18.611784307027506],[83.09213590746464,18.66399548447299],[83.1470357328439,18.66904779270095],[83.15494376783164,18.700892109158076],[83.1731924017277,18.70092146993096],[83.17185193362019,18.7218471480233],[83.19202167845413,18.73366887581875],[83.21307011701799,18.724091662700005],[83.22737610673954,18.7739615945884],[83.27407317587108,18.765224600849933],[83.28744665639886,18.79776990358448],[83.33095740455707,18.806472043891688],[83.36678643095405,18.84016693111147],[83.38073301176587,18.829410849903695],[83.40419603843588,18.838909259211846],[83.41860493452441,18.8649484177497],[83.38176314360578,18.893980466374728],[83.39176254730478,18.907746133192745],[83.35803538753487,18.923912315877317],[83.35688133081806,18.94178523775156],[83.38808855985098,18.931288959368374],[83.36891815229626,18.9613193535954],[83.35286304986704,18.964192740515784],[83.34693171065669,18.924170662744075],[83.32777632865748,18.933751875869348],[83.34030804069289,18.951272956765024],[83.31312604973203,18.997461165187246],[83.33702081879107,18.995990390294764],[83.35416778997381,19.017675536696313],[83.37015334421704,19.002572299007863],[83.41665210114455,19.00407340788038],[83.41659447153127,18.987805662163545],[83.46328671146628,18.953632872903512],[83.45630033319482,19.00755196053027],[83.48237169199056,19.008258960766284],[83.48573766938328,19.029091507199634],[83.46716050348822,19.077459736657715],[83.48099565406513,19.085547593694937],[83.50138774909061,19.060948717823276],[83.5131439843407,19.072618193177505],[83.52143054956719,19.032714859257148],[83.50131531670034,19.034718369882274],[83.5031745975203,19.01903803659877],[83.53914737656592,19.013416899136352],[83.56002950241691,19.055127025357393],[83.55415751725253,19.08170539106303],[83.56537564636736,19.0593124083877],[83.58649559589168,19.05774882258025],[83.59214057007128,19.087626800367563],[83.61211994882454,19.096088626618595],[83.60198817552555,19.128161005766806],[83.63092909729795,19.16142442493827],[83.70471733940846,19.024623511956985],[83.73091370064859,19.020076840503187],[83.71342289657052,18.993462891429324],[83.73397780419931,18.983815944208725],[83.75353425881642,18.926566569896533],[83.78776625857375,18.916188784953842],[83.74724996000562,18.986706157196053],[83.79596389630844,19.01607069344164],[83.82244460877024,18.961574501794832],[83.82460976828746,18.91788810747831],[83.84794732035373,18.91257738683882],[83.84479490819959,18.873310339936555],[83.89457546831352,18.814177643421605],[83.90966714547514,18.82568504956233],[83.94745748656375,18.805440268860742],[84.0346913201428,18.811115369202316],[84.08940277475529,18.753733524361717],[84.22423193252644,18.79639910717505],[84.25970538290466,18.78167171445079],[84.29140437624422,18.79999946266437],[84.31995526234768,18.78842135622647],[84.35153806660799,18.821130265788085],[84.34344305047813,18.875775375385118],[84.36983035480247,18.860189280760313],[84.37898040364304,18.87631884144332],[84.35885389332414,18.89224600541742],[84.39501834189156,18.886763970308404],[84.37271415341645,18.905287855850187],[84.40519884562806,18.895198785689317],[84.43672900000429,18.922729472040505],[84.42293945500884,18.94702628477291],[84.44795506930403,18.975883374220114],[84.42244394751998,19.022686541243864],[84.47893513414367,18.990167783677546],[84.49665611259702,19.02982730221637],[84.57332142258684,19.073893182098384],[84.59731464626337,19.022357955308173],[84.61987816695999,19.063738334340655],[84.66165285158826,19.061258417632615],[84.67171373623142,19.07521838946061],[84.6558519456705,19.093088323792593],[84.62697332945282,19.085383532306754],[84.59899847674023,19.132589293630915],[84.66827942147556,19.130661920706817],[84.67210415074639,19.165471647298755],[84.71229117015997,19.15778925583014],[84.70463539473187,19.117670746374955],[84.76858190526677,19.08002272819376],[84.82482150966416,19.17425674018433],[84.91503103373438,19.265696421217584],[85.09007386643741,19.377484949426215],[85.12707621599442,19.42713748124807],[85.35092170349023,19.583861070852663],[85.69637489266748,19.751335274203743],[85.90872932644007,19.819870898005664],[86.21157512057732,19.887963496258337],[86.23246983138735,19.89826468277548],[86.22811516337437,19.93284076393616],[86.24584835925893,19.908338232605807],[86.37518673227952,19.951663025522926],[86.36822809858542,19.974919844693336],[86.38207569541493,20.00119017450756],[86.4072063206439,20.00600206892709],[86.42900869811284,20.05280678481097],[86.4798189806454,20.09167016999076],[86.53825378238928,20.179954740613713],[86.78385430365996,20.325938127598018],[86.77651907060864,20.3894027941343],[86.74619855331703,20.377966506657124],[86.73865805542749,20.39625739268123],[86.72710519715406,20.37733211717799],[86.71204635340887,20.395377796355007],[86.73318673265834,20.410526392048233],[86.73857944486964,20.46029339352954],[86.72565396397111,20.479435202237465],[86.75150359557831,20.473546598707138],[86.75453678274285,20.517100372933907],[86.76968331876346,20.505300467529896],[86.82275425624616,20.556385351413905],[87.0561402048799,20.710737379831215],[86.96581986241927,20.688452853915614],[86.96894300904728,20.705965064251732],[86.90321121272983,20.709622126010636],[87.00657567150118,20.71308490263663],[86.99933034538218,20.76296209420587],[86.98514998217006,20.772205269311424],[86.90472773557083,20.761809681383422],[86.86324447130097,20.773941660279206],[86.83076880236983,20.75495595418023],[86.82185264034733,20.731353506642044],[86.79443693504687,20.74523702592178],[86.87996082401787,20.808169054673048],[86.89215199001042,20.792493709422715],[86.97051477299547,20.790887172897428],[86.98008659367373,20.82243525639481],[86.97917957333073,20.86003759106654],[86.85423611201682,21.095827208791547],[86.84359184319962,21.161507437266803],[86.86564064279327,21.22178774535282],[86.95148287027622,21.357754112677405],[87.05264785620214,21.42870950348225],[87.07015852636992,21.46206278828672],[87.08835954902506,21.45894385164692],[87.15024050301305,21.507884189622626],[87.22306263032445,21.535239341664557],[87.39656435356831,21.532169011850673],[87.37356081391088,21.562461707752483],[87.33848062375637,21.57632754240255],[87.3844762660396,21.57289348064433],[87.41007958639747,21.544871688597585],[87.43763428792442,21.58063716324902],[87.49020214407525,21.60264745194947],[87.48630765934449,21.63095653466804],[87.46289532296429,21.64999923951361],[87.4750766012885,21.71213471712812],[87.46943147625674,21.73127760504545],[87.44721365358862,21.73396278882503],[87.44795876668633,21.765759892942846],[87.38766763870797,21.77570943789817],[87.37447643918168,21.764942445028673],[87.35648018210927,21.790555892127816],[87.27603415163206,21.808193703964715],[87.23933640856295,21.900238775979563],[87.25690317873699,21.92240811531722],[87.23938515525744,21.958925742695204],[87.19968514608934,21.958105763063827],[87.17545725321564,21.977120543138795],[87.16103045863268,21.933491584078148],[87.09821418243017,21.912507246473805],[87.09929318911603,21.865031953976484],[87.03496717427375,21.86998379100154],[87.00272093439885,21.91210110018593],[87.03906420509833,21.99365372593502],[87.03082630911254,22.033150200815218],[86.97189613994068,22.08206224743469],[86.83696673286373,22.0993746599536],[86.80210480091567,22.130340493920187],[86.79534192918301,22.158106349241756],[86.72052881576741,22.147647019347975],[86.72606055873499,22.22087945324832],[86.65630562299276,22.23720123038838],[86.65074304013915,22.26532911962056],[86.59616668894962,22.278751182239013],[86.58370715853822,22.3016975256733],[86.53766566922783,22.302053264634107],[86.50528572623872,22.344739297992533],[86.4437680762033,22.327165889133184],[86.43873370997366,22.30536448103152],[86.35819163760634,22.349146288198963],[86.28534751337479,22.449067197996854],[86.11302512446024,22.488319521611793],[86.04425789030229,22.566853831676994],[86.0241274650191,22.546921372848274],[86.02781812486535,22.52387774656905],[85.97507609796166,22.50311796278592],[85.95931601466823,22.45936326738988],[86.0145015722989,22.4277916339379],[86.02698710691595,22.378596027267097],[85.99864359259269,22.341759285245995],[86.02616336621692,22.333026696336646],[86.01415236695011,22.31360652411988],[86.0490015708852,22.309860786804016],[86.01422693151896,22.296352847377314],[85.97554435238773,22.24714106967772],[86.03242199969148,22.18908536459538],[86.00035428687804,22.13571899215866],[86.00617582878529,22.11294466265316],[85.94833069063533,22.023221223905676],[85.91801382637789,22.00890555994405],[85.91119964351324,21.970800159168046],[85.8969198712537,21.982663599819407],[85.82417789364504,21.974133902591277],[85.76663558933832,21.9937762934741],[85.79380443062638,22.081107282692155],[85.83658893441991,22.08092102201843],[85.80794081310697,22.11470615494783],[85.7519671848789,22.07379856232935],[85.68745500088525,22.052705376567214],[85.65061216674866,22.094119515826595],[85.59712142541342,22.07827354694988],[85.5456007614549,22.090367417935518],[85.41647256984346,22.159670017902105],[85.36941267258499,22.158137933420996],[85.36757504214884,22.125073936709946],[85.329237276119,22.128583921951112],[85.30632798277082,22.110669930681492],[85.23722718120277,22.004015344107525],[85.22118767839585,22.014422835952782],[85.21704680226547,22.04684003163789],[85.17878933769899,22.07178512458194],[85.17714191457608,22.051819270521744],[85.16189247526836,22.074035292805817],[85.12523999020432,22.070036737364696],[85.10182486961943,22.102941930327596],[85.05031017049095,22.1141372870336],[84.99388088850658,22.08020161359495],[84.98695426275188,22.094692291001227],[85.03017024383385,22.1154076335016],[85.03183310432688,22.157354295681955],[85.07588831858101,22.233916836205772],[85.07692883363285,22.275354439256343],[85.12085365383598,22.293674867894076],[85.12042800744408,22.317368506728737],[85.09437502544581,22.317231863848207],[85.09937523791017,22.34419306417945],[85.08048549878195,22.351661754817673],[85.0895133086283,22.381480338853425],[85.06349855382474,22.447615380468125],[85.08007535226626,22.469556934962842],[85.06894486821027,22.48126887745421],[84.9611006864923,22.44175071443566],[84.95379507359321,22.453902015087248],[84.90034112174419,22.420850460094233],[84.88680855732858,22.42041931584897],[84.88309615946393,22.446025965037244],[84.83913583888683,22.4291653885687],[84.81440355933519,22.449592248509536],[84.7593269569011,22.444710683472422],[84.75049978235107,22.417493313995042],[84.66828976308705,22.416605920547816],[84.63879174035122,22.4312841366324],[84.53339052474443,22.422595771415725],[84.48345997198547,22.408541352108372],[84.4843765881488,22.38626790614473],[84.45465094592531,22.381661894096666],[84.43289043862065,22.351421003334483],[84.29609191707668,22.339836147197328],[84.25344924502168,22.37613210503239],[84.20102688832819,22.374203250935544],[84.1594295200712,22.40323778254834],[84.14283536415672,22.422939073342093],[84.14188148401472,22.47312933282624],[84.11309423391432,22.47600879194132],[84.0645995315763,22.512204423113573],[83.98713003253333,22.523983887784134],[83.98313247964322,22.50422058694527],[84.04855312797032,22.466223425231618],[84.01122046913001,22.369901094346844],[83.86806101416325,22.345943026731636],[83.75987984291216,22.245089886558684],[83.70010603888927,22.247679933446996],[83.65285897619113,22.226750160788256],[83.56440370368425,22.102268389027167],[83.60743668919177,22.067890626489543],[83.55014364242219,22.061730674013443],[83.5396015346898,22.036419383216053],[83.55569422630296,22.009134151951766],[83.54230457804404,21.965985161182378],[83.56048675379273,21.93473765177709],[83.6075902565217,21.91347431081895],[83.57864229682639,21.874555037763614],[83.59158444260228,21.84633396205893],[83.58064642992554,21.83240935807187],[83.53837644136132,21.834605857862055],[83.5436869223924,21.796707196133614],[83.49806548908941,21.8172435152139],[83.47431896429147,21.785471992322414],[83.49126984682388,21.74437999968628],[83.4634866233355,21.697183657931266],[83.43512930265753,21.69517411225325],[83.42691572380392,21.677875121017472],[83.49021595572736,21.642588055551588],[83.49168078211429,21.628564744698387],[83.45992125708655,21.608203238062412],[83.44838729700948,21.652200677175276],[83.38788352412057,21.615686491142657],[83.34181409287423,21.498645380341095],[83.35748196974042,21.447179021831392],[83.40095450677843,21.402754197738854],[83.40984202818149,21.351845333317737],[83.38201306547047,21.343361135655933],[83.27724240916923,21.378281546445194],[83.26141666304166,21.322905888405458],[83.28201441947864,21.293956487512002],[83.27491881447813,21.272005287508563],[83.24967242070196,21.279817572134732],[83.22558681211176,21.26350686385378],[83.20001357327064,21.143018360388513],[83.12711770623937,21.10463664724631],[83.04787732710271,21.122396294234356],[83.00026719613831,21.157628658020784],[82.97244136825705,21.15908155560355],[82.96337088452728,21.178766413849633],[82.88655489616183,21.152336308553284],[82.81980356451018,21.161723517521935],[82.7961775820086,21.142444046717486],[82.75962111021157,21.162839071079425],[82.64327972492961,21.15244394638274],[82.65237736977612,21.104965568200424],[82.6167360330548,21.074302060619054],[82.62967202637292,21.039748967373658],[82.56030345672207,20.944750076355515],[82.49303835594154,20.906782954366488],[82.48930838122075,20.858656065843928],[82.46644473457593,20.827215959395314],[82.42293021181236,20.829800351923478],[82.40879618928156,20.865687134155227],[82.36642514010175,20.86974303533859],[82.35400150069069,20.887002525557243],[82.34253094604746,20.761884804723262],[82.37566399027055,20.627696651952252],[82.33145848796421,20.55759385476092],[82.38794565756278,20.513711829246773],[82.39556232731103,20.456476717959994],[82.41753118434934,20.47724591168279],[82.436639281022,20.429806924838086],[82.40127642710019,20.339696403841764],[82.43673593283526,20.2872709729847],[82.41259800502914,20.26784965620484],[82.42113184607356,20.20671784362582],[82.38647065213766,20.149143484914823],[82.39842490914056,20.06427706990067],[82.60595782278767,19.990697827885672],[82.63932745132097,20.005145324675123],[82.7150576658341,19.995389627839344],[82.7081252963915,19.89863557908636],[82.7251106561013,19.87621276833915],[82.71033072979719,19.836499890199583],[82.65336870304195,19.830779687223764],[82.63061911410387,19.79476236952666],[82.59271396410568,19.77649497478991],[82.57889832354729,19.82771568323759],[82.60112165527751,19.86981531174431],[82.45001092709605,19.908010948365376],[82.39643545522202,19.886777078622085],[82.34709545411667,19.835015418338855],[82.3058543009111,19.888360953155498],[82.26929515484824,19.976254861846083],[82.23821695171165,20.002695163487257],[82.1860586442133,19.982669657322642],[82.1734141826931,20.002693594743],[82.12367041669802,20.014857346472937],[82.065458803192,20.05418724330391],[82.03197350484785,20.01439822422564],[82.01750668767657,20.04907085917142],[81.94887105681802,20.106337992639677],[81.87408068574713,20.040169132053425],[81.84485420238359,19.954322700323075],[81.85720611911779,19.912399432663076],[81.96797649076488,19.85929916244839],[81.9877858875749,19.800472930822718],[82.06748105207554,19.787913599936285],[82.04522358078418,19.708846464654627],[82.05387167651371,19.543867701496918],[82.03014038642611,19.507093986151837],[82.09980936085695,19.51520247212025],[82.1046528434497,19.46654056000128],[82.12708603822097,19.429462088332556],[82.17501413543485,19.435455393436644],[82.19084563918253,19.42325774569377],[82.17418434598487,19.371651237865798],[82.14864892441786,19.36761866411344],[82.19100588026203,19.325535348000436],[82.1595942467901,19.27136121381313],[82.1635930567216,19.202559533666886],[82.1866922261541,19.164996505522367],[82.17204506617031,19.160762662886782],[82.1827012362944,19.1513842206208],[82.16770026110368,19.132653515377967],[82.17774023704743,19.119072329943435],[82.18415091418075,19.131257318160237],[82.20766392141945,19.1237052952348],[82.20646924315753,19.10045266510963],[82.2200488505053,19.09685245275972],[82.2020482527551,19.066570209086876],[82.23303247596925,19.021054956465434],[82.24758022172841,18.91714680841551],[82.18076785614812,18.901925327832714],[82.16624006467094,18.876123934950044],[82.1692300909329,18.79776866527584],[82.13717032587078,18.764499020398375],[82.0895000245552,18.76266312220031],[82.09291504252087,18.739285919910458],[82.13021574594819,18.722751961939878],[82.12787796051735,18.70811905344216],[82.13021574594816,18.722751961939824],[82.09291504252083,18.73928591991044],[82.08670557035353,18.718958153942378],[82.04184934692412,18.72560229467142],[81.96528788261024,18.69018432650306],[81.955591306925,18.635688643452607],[81.89350276487883,18.657072112305872],[81.8965262486214,18.627796422173983],[81.96270682244734,18.59367080621379],[81.9551033503375,18.56613599929502],[81.91678320622098,18.571184369209778],[81.90502359863325,18.53538980062449],[81.86614576387093,18.52003051076408],[81.85253356989838,18.48856297078237],[81.77033613182769,18.418352527042856],[81.75319790358711,18.352500844180707],[81.66635813752926,18.34633029419875],[81.66693643730964,18.31819729325387],[81.60166051683842,18.30830493125009],[81.53623697330212,18.26610496467022],[81.51308608421095,18.190943418115705],[81.53094601320215,18.164466797043826],[81.51702066948504,18.09972407336233],[81.48229328509488,18.035896860232416],[81.48575584973227,17.977513112376226],[81.45370318083322,17.93371667448277],[81.44575192616216,17.883582936150287],[81.40230431597334,17.892686808185044],[81.40655977756143,17.854408108621733],[81.39150221074128,17.828239806763836]]]}}]}